0 DELTA 1 DEB
1 28670U 68055T   13265.18964159  .00022873  00000-0  12077-1 0  1810
2 28670 120.5489 308.5266 1160280 140.7570 229.3970 12.45250708407610
0 DELTA 1 DEB
1 28670U 68055T   13268.07960491  .00033148  00000-0  17633-1 0  1827
2 28670 120.5460 315.7561 1157289 142.8338 225.8657 12.45449752407978
0 DELTA 1 DEB
1 28670U 68055T   13272.09302546  .00031881  00000-0  19847-1 0  1837
2 28670 120.5029 325.6004 1124999 144.6030 223.2048 12.45716493408473
0 DELTA 1 DEB
1 28670U 68055T   13275.22298320  .00032382  00000-0  17141-1 0  1842
2 28670 120.5473 333.6066 1155778 148.0062 220.1861 12.45921619408865
